{
"type": "FeatureCollection",
"name": "pps_elementary_schools",
"crs": { "type": "name", "properties": { "name": "urn:ogc:def:crs:OGC:1.3:CRS84" } },
"features": [
{ "type": "Feature", "properties": { "school": "LENOX ELEMENTARY SCHOOL", "street_address": "21200 NW ROCK CREEK BLVD", "city": "PORTLAND", "state": "OR", "zip_code": "97229" }, "geometry": { "type": "Point", "coordinates": [ -122.89445070909504, 45.5584047 ] } },
{ "type": "Feature", "properties": { "school": "CEDAR MILL ELEMENTARY SCHOOL", "street_address": "10265 NW CORNELL RD", "city": "PORTLAND", "state": "OR", "zip_code": "97229" }, "geometry": { "type": "Point", "coordinates": [ -122.708258, 45.5323844 ] } },
{ "type": "Feature", "properties": { "school": "MONTCLAIR ELEMENTARY SCHOOL", "street_address": "7250 SW VERMONT", "city": "PORTLAND", "state": "OR", "zip_code": "97223" }, "geometry": { "type": "Point", "coordinates": [ -122.7512537, 45.4760448 ] } },
{ "type": "Feature", "properties": { "school": "RALEIGH HILLS ELEMENTARY SCHOOL", "street_address": "5225 SW SCHOLLS FERRY RD", "city": "PORTLAND", "state": "OR", "zip_code": "97225" }, "geometry": { "type": "Point", "coordinates": [ -122.7379137, 45.5068894 ] } },
{ "type": "Feature", "properties": { "school": "RALEIGH PARK ELEMENTARY SCHOOL", "street_address": "3670 SW 78TH AVE", "city": "PORTLAND", "state": "OR", "zip_code": "97225" }, "geometry": { "type": "Point", "coordinates": [ -122.755863611064115, 45.49351885 ] } },
{ "type": "Feature", "properties": { "school": "RIDGEWOOD ELEMENTARY SCHOOL", "street_address": "10100 SW INGLEWOOD ST", "city": "PORTLAND", "state": "OR", "zip_code": "97225" }, "geometry": { "type": "Point", "coordinates": [ -122.780994663245735, 45.50236405 ] } },
{ "type": "Feature", "properties": { "school": "ROCK CREEK ELEMENTARY SCHOOL", "street_address": "4125 NW 185TH AVE", "city": "PORTLAND", "state": "OR", "zip_code": "97229" }, "geometry": { "type": "Point", "coordinates": [ -122.868318286050823, 45.54954915 ] } },
{ "type": "Feature", "properties": { "school": "TERRA LINDA ELEMENTARY SCHOOL", "street_address": "1998 NW 143RD AVE", "city": "PORTLAND", "state": "OR", "zip_code": "97229" }, "geometry": { "type": "Point", "coordinates": [ -122.820575781875419, 45.53330835 ] } },
{ "type": "Feature", "properties": { "school": "WEST TUALATIN VIEW ELEMENTARY SCHOOL", "street_address": "8800 SW LEAHY RD", "city": "PORTLAND", "state": "OR", "zip_code": "97225" }, "geometry": { "type": "Point", "coordinates": [ -122.767247246147207, 45.5154146 ] } },
{ "type": "Feature", "properties": { "school": "WILLIAM WALKER ELEMENTARY SCHOOL", "street_address": "11940 SW LYNNFIELD LN", "city": "PORTLAND", "state": "OR", "zip_code": "97225" }, "geometry": { "type": "Point", "coordinates": [ -122.799944, 45.501766 ] } },
{ "type": "Feature", "properties": { "school": "FINDLEY ELEMENTARY", "street_address": "4155 NW SALTZMAN RD", "city": "PORTLAND", "state": "OR", "zip_code": "97229" }, "geometry": { "type": "Point", "coordinates": [ -122.7844327, 45.5620263 ] } },
{ "type": "Feature", "properties": { "school": "JACOB WISMER ELEMENTARY SCHOOL", "street_address": "5477 NW SKYCREST PKWY", "city": "PORTLAND", "state": "OR", "zip_code": "97229" }, "geometry": { "type": "Point", "coordinates": [ -122.823521235401117, 45.56051575 ] } },
{ "type": "Feature", "properties": { "school": "BONNY SLOPE ELEMENTARY SCHOOL", "street_address": "11775 NW MCDANIEL RD", "city": "PORTLAND", "state": "OR", "zip_code": "97229" }, "geometry": { "type": "Point", "coordinates": [ -122.797303891029316, 45.53938165 ] } },
{ "type": "Feature", "properties": { "school": "LYNCH MEADOWS ELEMENTARY SCHOOL", "street_address": "18009 SE BROOKLYN ST", "city": "PORTLAND", "state": "OR", "zip_code": "97236" }, "geometry": { "type": "Point", "coordinates": [ -122.5164385, 45.5005204 ] } },
{ "type": "Feature", "properties": { "school": "LYNCH VIEW ELEMENTARY SCHOOL", "street_address": "1546 SE 169TH PL", "city": "PORTLAND", "state": "OR", "zip_code": "97233" }, "geometry": { "type": "Point", "coordinates": [ -122.488657148448141, 45.51141015 ] } },
{ "type": "Feature", "properties": { "school": "LYNCH WOOD ELEMENTARY SCHOOL", "street_address": "3615 SE 174TH ST", "city": "PORTLAND", "state": "OR", "zip_code": "97236" }, "geometry": { "type": "Point", "coordinates": [ -122.485395, 45.496594 ] } },
{ "type": "Feature", "properties": { "school": "CHERRY PARK ELEMENTARY SCHOOL", "street_address": "1930 SE 104TH AVE", "city": "PORTLAND", "state": "OR", "zip_code": "97216" }, "geometry": { "type": "Point", "coordinates": [ -122.555173193755166, 45.50858605 ] } },
{ "type": "Feature", "properties": { "school": "GILBERT HEIGHTS ELEMENTARY SCHOOL", "street_address": "12839 SE HOLGATE BLVD", "city": "PORTLAND", "state": "OR", "zip_code": "97236" }, "geometry": { "type": "Point", "coordinates": [ -122.531572122323695, 45.4906387 ] } },
{ "type": "Feature", "properties": { "school": "GILBERT PARK ELEMENTARY SCHOOL", "street_address": "13132 SE RAMONA ST", "city": "PORTLAND", "state": "OR", "zip_code": "97236" }, "geometry": { "type": "Point", "coordinates": [ -122.528351360311234, 45.4794841 ] } },
{ "type": "Feature", "properties": { "school": "LINCOLN PARK ELEMENTARY SCHOOL", "street_address": "13200 SE LINCOLN ST", "city": "PORTLAND", "state": "OR", "zip_code": "97233" }, "geometry": { "type": "Point", "coordinates": [ -122.5262608, 45.5082 ] } },
{ "type": "Feature", "properties": { "school": "MENLO PARK ELEMENTARY SCHOOL", "street_address": "12900 NE GLISAN ST", "city": "PORTLAND", "state": "OR", "zip_code": "97230" }, "geometry": { "type": "Point", "coordinates": [ -122.530608199488555, 45.5241932 ] } },
{ "type": "Feature", "properties": { "school": "MILL PARK ELEMENTARY SCHOOL", "street_address": "1900 SE 117TH AVE", "city": "PORTLAND", "state": "OR", "zip_code": "97216" }, "geometry": { "type": "Point", "coordinates": [ -122.541496914619302, 45.50924235 ] } },
{ "type": "Feature", "properties": { "school": "VENTURA PARK ELEMENTARY SCHOOL", "street_address": "145 SE 117TH AVE", "city": "PORTLAND", "state": "OR", "zip_code": "97216" }, "geometry": { "type": "Point", "coordinates": [ -122.543943329255598, 45.52089055 ] } },
{ "type": "Feature", "properties": { "school": "WEST POWELLHURST ELEMENTARY SCHOOL", "street_address": "2921 SE 116TH AVE", "city": "PORTLAND", "state": "OR", "zip_code": "97266" }, "geometry": { "type": "Point", "coordinates": [ -122.543515, 45.5014413 ] } },
{ "type": "Feature", "properties": { "school": "EARL BOYLES ELEMENTARY", "street_address": "10822 SE BUSH", "city": "PORTLAND", "state": "OR", "zip_code": "97266" }, "geometry": { "type": "Point", "coordinates": [ -122.552069570041283, 45.4939778 ] } },
{ "type": "Feature", "properties": { "school": "MOUNT SCOTT ELEMENTARY SCHOOL", "street_address": "11201 SE STEVENS RD", "city": "PORTLAND", "state": "OR", "zip_code": "97266" }, "geometry": { "type": "Point", "coordinates": [ -122.564791, 45.442634 ] } },
{ "type": "Feature", "properties": { "school": "PRESCOTT ELEMENTARY SCHOOL", "street_address": "10410 NE PRESCOTT ST", "city": "PORTLAND", "state": "OR", "zip_code": "97220" }, "geometry": { "type": "Point", "coordinates": [ -122.556229371277141, 45.5548962 ] } },
{ "type": "Feature", "properties": { "school": "SACRAMENTO ELEMENTARY SCHOOL", "street_address": "11400 NE SACRAMENTO ST", "city": "PORTLAND", "state": "OR", "zip_code": "97220" }, "geometry": { "type": "Point", "coordinates": [ -122.544634252720599, 45.53848665 ] } },
{ "type": "Feature", "properties": { "school": "SHAVER ELEMENTARY SCHOOL", "street_address": "3701 NE 131ST PL", "city": "PORTLAND", "state": "OR", "zip_code": "97230" }, "geometry": { "type": "Point", "coordinates": [ -122.528818045057847, 45.549507 ] } },
{ "type": "Feature", "properties": { "school": "RIEKE ELEMENTARY SCHOOL", "street_address": "1405 SW VERMONT", "city": "PORTLAND", "state": "OR", "zip_code": "97219" }, "geometry": { "type": "Point", "coordinates": [ -122.6942536, 45.476723 ] } },
{ "type": "Feature", "properties": { "school": "ABERNETHY ELEMENTARY SCHOOL", "street_address": "2421 SE ORANGE AVE", "city": "PORTLAND", "state": "OR", "zip_code": "97214" }, "geometry": { "type": "Point", "coordinates": [ -122.651443569044517, 45.5058231 ] } },
{ "type": "Feature", "properties": { "school": "AINSWORTH ELEMENTARY SCHOOL", "street_address": "2425 SW VISTA AVE", "city": "PORTLAND", "state": "OR", "zip_code": "97201" }, "geometry": { "type": "Point", "coordinates": [ -122.699885267529439, 45.50990065 ] } },
{ "type": "Feature", "properties": { "school": "ALAMEDA ELEMENTARY SCHOOL", "street_address": "2732 NE FREMONT ST", "city": "PORTLAND", "state": "OR", "zip_code": "97212" }, "geometry": { "type": "Point", "coordinates": [ -122.63733578999836, 45.54745175 ] } },
{ "type": "Feature", "properties": { "school": "ARLETA ELEMENTARY SCHOOL", "street_address": "5109 SE 66TH AVE", "city": "PORTLAND", "state": "OR", "zip_code": "97206" }, "geometry": { "type": "Point", "coordinates": [ -122.596667798572582, 45.48610245 ] } },
{ "type": "Feature", "properties": { "school": "ASTOR ELEMENTARY SCHOOL", "street_address": "5601 N YALE ST", "city": "PORTLAND", "state": "OR", "zip_code": "97203" }, "geometry": { "type": "Point", "coordinates": [ -122.729457291383085, 45.57899355 ] } },
{ "type": "Feature", "properties": { "school": "ATKINSON ELEMENTARY SCHOOL", "street_address": "5800 SE DIVISION ST", "city": "PORTLAND", "state": "OR", "zip_code": "97206" }, "geometry": { "type": "Point", "coordinates": [ -122.604509518479944, 45.5049006 ] } },
{ "type": "Feature", "properties": { "school": "ROSA PARKS ELEMENTARY SCHOOL", "street_address": "8960 N WOOLSEY AVE", "city": "PORTLAND", "state": "OR", "zip_code": "97203" }, "geometry": { "type": "Point", "coordinates": [ -122.712871938634862, 45.58790525 ] } },
{ "type": "Feature", "properties": { "school": "BEACH ELEMENTARY SCHOOL", "street_address": "1710 N HUMBOLDT ST", "city": "PORTLAND", "state": "OR", "zip_code": "97217" }, "geometry": { "type": "Point", "coordinates": [ -122.686145317557418, 45.5578188 ] } },
{ "type": "Feature", "properties": { "school": "BOISE-ELIOT ELEMENTARY SCHOOL", "street_address": "620 N FREMONT", "city": "PORTLAND", "state": "OR", "zip_code": "97227" }, "geometry": { "type": "Point", "coordinates": [ -122.672715695525966, 45.54711765 ] } },
{ "type": "Feature", "properties": { "school": "BRIDGER ELEMENTARY SCHOOL", "street_address": "7910 SE MARKET ST", "city": "PORTLAND", "state": "OR", "zip_code": "97215" }, "geometry": { "type": "Point", "coordinates": [ -122.583039448105083, 45.51030295 ] } },
{ "type": "Feature", "properties": { "school": "BRIDLEMILE ELEMENTARY SCHOOL", "street_address": "4300 SW 47TH DR", "city": "PORTLAND", "state": "OR", "zip_code": "97221" }, "geometry": { "type": "Point", "coordinates": [ -122.724446893928913, 45.49153115 ] } },
{ "type": "Feature", "properties": { "school": "BUCKMAN ELEMENTARY SCHOOL", "street_address": "320 SE 16TH AVE", "city": "PORTLAND", "state": "OR", "zip_code": "97214" }, "geometry": { "type": "Point", "coordinates": [ -122.648557355845639, 45.52034355 ] } },
{ "type": "Feature", "properties": { "school": "CAPITOL HILL ELEMENTARY SCHOOL", "street_address": "8401 SW 17TH AVE", "city": "PORTLAND", "state": "OR", "zip_code": "97219" }, "geometry": { "type": "Point", "coordinates": [ -122.696074453662817, 45.4643553 ] } },
{ "type": "Feature", "properties": { "school": "CHAPMAN ELEMENTARY SCHOOL", "street_address": "1445 NW 26TH AVE", "city": "PORTLAND", "state": "OR", "zip_code": "97210" }, "geometry": { "type": "Point", "coordinates": [ -122.705746017288007, 45.53322635 ] } },
{ "type": "Feature", "properties": { "school": "CHIEF JOSEPH ELEMENTARY SCHOOL", "street_address": "2409 N SARATOGA ST", "city": "PORTLAND", "state": "OR", "zip_code": "97217" }, "geometry": { "type": "Point", "coordinates": [ -122.691405036554144, 45.57298375 ] } },
{ "type": "Feature", "properties": { "school": "CRESTON ELEMENTARY SCHOOL", "street_address": "4701 SE BUSH ST", "city": "PORTLAND", "state": "OR", "zip_code": "97206" }, "geometry": { "type": "Point", "coordinates": [ -122.614131742969235, 45.49571735 ] } },
{ "type": "Feature", "properties": { "school": "DUNIWAY ELEMENTARY SCHOOL", "street_address": "7700 SE REED COLLEGE PL", "city": "PORTLAND", "state": "OR", "zip_code": "97202" }, "geometry": { "type": "Point", "coordinates": [ -122.628261175350957, 45.46811295 ] } },
{ "type": "Feature", "properties": { "school": "FAUBION ELEMENTARY SCHOOL", "street_address": "3039 NE PORTLAND BLVD", "city": "PORTLAND", "state": "OR", "zip_code": "97211" }, "geometry": { "type": "Point", "coordinates": [ -122.6548893, 45.5696289 ] } },
{ "type": "Feature", "properties": { "school": "GLENCOE ELEMENTARY SCHOOL", "street_address": "825 SE 51ST AVE", "city": "PORTLAND", "state": "OR", "zip_code": "97215" }, "geometry": { "type": "Point", "coordinates": [ -122.611530114151662, 45.5170415 ] } },
{ "type": "Feature", "properties": { "school": "GROUT ELEMENTARY SCHOOL", "street_address": "3119 SE HOLGATE BLVD", "city": "PORTLAND", "state": "OR", "zip_code": "97202" }, "geometry": { "type": "Point", "coordinates": [ -122.6332006, 45.490863 ] } },
{ "type": "Feature", "properties": { "school": "HAYHURST ELEMENTARY SCHOOL", "street_address": "5037 SW IOWA ST", "city": "PORTLAND", "state": "OR", "zip_code": "97221" }, "geometry": { "type": "Point", "coordinates": [ -122.729622601114642, 45.48051565 ] } },
{ "type": "Feature", "properties": { "school": "HUMBOLDT ELEMENTARY SCHOOL", "street_address": "4915 N GANTENBEIN AVE", "city": "PORTLAND", "state": "OR", "zip_code": "97217" }, "geometry": { "type": "Point", "coordinates": [ -122.670070668834114, 45.5584122 ] } },
{ "type": "Feature", "properties": { "school": "IRVINGTON ELEMENTARY SCHOOL", "street_address": "1320 NE BRAZEE ST", "city": "PORTLAND", "state": "OR", "zip_code": "97212" }, "geometry": { "type": "Point", "coordinates": [ -122.652306637011776, 45.53947645 ] } },
{ "type": "Feature", "properties": { "school": "JAMES JOHN ELEMENTARY SCHOOL", "street_address": "7439 N CHARLESTON AVE", "city": "PORTLAND", "state": "OR", "zip_code": "97203" }, "geometry": { "type": "Point", "coordinates": [ -122.751969100184084, 45.5902592 ] } },
{ "type": "Feature", "properties": { "school": "KELLY ELEMENTARY SCHOOL", "street_address": "9030 SE COOPER ST", "city": "PORTLAND", "state": "OR", "zip_code": "97266" }, "geometry": { "type": "Point", "coordinates": [ -122.571492872067282, 45.4723439 ] } },
{ "type": "Feature", "properties": { "school": "KING ELEMENTARY SCHOOL", "street_address": "4906 NE 6TH AVE", "city": "PORTLAND", "state": "OR", "zip_code": "97211" }, "geometry": { "type": "Point", "coordinates": [ -122.659529972495477, 45.55763535 ] } },
{ "type": "Feature", "properties": { "school": "LAURELHURST ELEMENTARY SCHOOL", "street_address": "840 NE 41ST AVE", "city": "PORTLAND", "state": "OR", "zip_code": "97232" }, "geometry": { "type": "Point", "coordinates": [ -122.619415309757287, 45.52917135 ] } },
{ "type": "Feature", "properties": { "school": "LEE ELEMENTARY SCHOOL", "street_address": "2222 NE 92ND AVE", "city": "PORTLAND", "state": "OR", "zip_code": "97220" }, "geometry": { "type": "Point", "coordinates": [ -122.56787, 45.5378844 ] } },
{ "type": "Feature", "properties": { "school": "LENT ELEMENTARY SCHOOL", "street_address": "5105 SE 97TH AVE", "city": "PORTLAND", "state": "OR", "zip_code": "97266" }, "geometry": { "type": "Point", "coordinates": [ -122.564388374903899, 45.48615585 ] } },
{ "type": "Feature", "properties": { "school": "LEWIS ELEMENTARY SCHOOL", "street_address": "4401 SE EVERGREEN ST", "city": "PORTLAND", "state": "OR", "zip_code": "97206" }, "geometry": { "type": "Point", "coordinates": [ -122.6171796758467, 45.47411645 ] } },
{ "type": "Feature", "properties": { "school": "LLEWELLYN ELEMENTARY SCHOOL", "street_address": "6301 SE 14TH AVE", "city": "PORTLAND", "state": "OR", "zip_code": "97202" }, "geometry": { "type": "Point", "coordinates": [ -122.652268901160397, 45.4770645 ] } },
{ "type": "Feature", "properties": { "school": "MAPLEWOOD ELEMENTARY SCHOOL", "street_address": "7452 SW 52ND AVE", "city": "PORTLAND", "state": "OR", "zip_code": "97219" }, "geometry": { "type": "Point", "coordinates": [ -122.729867472189795, 45.4714989 ] } },
{ "type": "Feature", "properties": { "school": "MARKHAM ELEMENTARY SCHOOL", "street_address": "10531 SW CAPITOL HWY", "city": "PORTLAND", "state": "OR", "zip_code": "97219" }, "geometry": { "type": "Point", "coordinates": [ -122.726365639606058, 45.4490463 ] } },
{ "type": "Feature", "properties": { "school": "MARYSVILLE ELEMENTARY SCHOOL", "street_address": "7733 SE RAYMOND ST", "city": "PORTLAND", "state": "OR", "zip_code": "97206" }, "geometry": { "type": "Point", "coordinates": [ -122.583477268182904, 45.4871488 ] } },
{ "type": "Feature", "properties": { "school": "PENINSULA ELEMENTARY SCHOOL", "street_address": "8125 N EMERALD AVE", "city": "PORTLAND", "state": "OR", "zip_code": "97217" }, "geometry": { "type": "Point", "coordinates": [ -122.701108583768686, 45.58162405 ] } },
{ "type": "Feature", "properties": { "school": "RICHMOND ELEMENTARY SCHOOL", "street_address": "2276 SE 41ST AVE", "city": "PORTLAND", "state": "OR", "zip_code": "97214" }, "geometry": { "type": "Point", "coordinates": [ -122.6197183, 45.5063887 ] } },
{ "type": "Feature", "properties": { "school": "RIGLER ELEMENTARY SCHOOL", "street_address": "5401 NE PRESCOTT ST", "city": "PORTLAND", "state": "OR", "zip_code": "97218" }, "geometry": { "type": "Point", "coordinates": [ -122.60834015104092, 45.5562628 ] } },
{ "type": "Feature", "properties": { "school": "SABIN ELEMENTARY SCHOOL", "street_address": "4013 NE 18TH AVE", "city": "PORTLAND", "state": "OR", "zip_code": "97212" }, "geometry": { "type": "Point", "coordinates": [ -122.6475094, 45.5516731 ] } },
{ "type": "Feature", "properties": { "school": "SCOTT ELEMENTARY SCHOOL", "street_address": "6700 NE PRESCOTT ST", "city": "PORTLAND", "state": "OR", "zip_code": "97218" }, "geometry": { "type": "Point", "coordinates": [ -122.594246677376077, 45.5546576 ] } },
{ "type": "Feature", "properties": { "school": "SITTON ELEMENTARY SCHOOL", "street_address": "9930 N SMITH ST", "city": "PORTLAND", "state": "OR", "zip_code": "97203" }, "geometry": { "type": "Point", "coordinates": [ -122.758384116161238, 45.59983515 ] } },
{ "type": "Feature", "properties": { "school": "SKYLINE ELEMENTARY SCHOOL", "street_address": "11536 NW SKYLINE BLVD", "city": "PORTLAND", "state": "OR", "zip_code": "97231" }, "geometry": { "type": "Point", "coordinates": [ -122.8568922, 45.6075938 ] } },
{ "type": "Feature", "properties": { "school": "STEPHENSON ELEMENTARY SCHOOL", "street_address": "2627 SW STEPHENSON ST", "city": "PORTLAND", "state": "OR", "zip_code": "97219" }, "geometry": { "type": "Point", "coordinates": [ -122.703728510709965, 45.4414054 ] } },
{ "type": "Feature", "properties": { "school": "VERNON ELEMENTARY SCHOOL", "street_address": "2044 NE KILLINGSWORTH ST", "city": "PORTLAND", "state": "OR", "zip_code": "97211" }, "geometry": { "type": "Point", "coordinates": [ -122.6438445, 45.5621186 ] } },
{ "type": "Feature", "properties": { "school": "VESTAL ELEMENTARY SCHOOL", "street_address": "161 NE 82ND AVE", "city": "PORTLAND", "state": "OR", "zip_code": "97220" }, "geometry": { "type": "Point", "coordinates": [ -122.579692, 45.5246104 ] } },
{ "type": "Feature", "properties": { "school": "WHITMAN ELEMENTARY SCHOOL", "street_address": "7326 SE FLAVEL ST", "city": "PORTLAND", "state": "OR", "zip_code": "97206" }, "geometry": { "type": "Point", "coordinates": [ -122.5873871, 45.4683937 ] } },
{ "type": "Feature", "properties": { "school": "WOODLAWN ELEMENTARY SCHOOL", "street_address": "7200 NE 11TH AVE", "city": "PORTLAND", "state": "OR", "zip_code": "97211" }, "geometry": { "type": "Point", "coordinates": [ -122.653186499579164, 45.57535485 ] } },
{ "type": "Feature", "properties": { "school": "WOODMERE ELEMENTARY SCHOOL", "street_address": "7900 SE DUKE ST", "city": "PORTLAND", "state": "OR", "zip_code": "97206" }, "geometry": { "type": "Point", "coordinates": [ -122.582060997287556, 45.4753886 ] } },
{ "type": "Feature", "properties": { "school": "WOODSTOCK ELEMENTARY SCHOOL", "street_address": "5601 SE 50TH AVE", "city": "PORTLAND", "state": "OR", "zip_code": "97206" }, "geometry": { "type": "Point", "coordinates": [ -122.612395786507079, 45.48205385 ] } },
{ "type": "Feature", "properties": { "school": "FOREST PARK ELEMENTARY SCHOOL", "street_address": "9935 NW DURRETT ST", "city": "PORTLAND", "state": "OR", "zip_code": "97229" }, "geometry": { "type": "Point", "coordinates": [ -122.77715998731972, 45.54276865 ] } },
{ "type": "Feature", "properties": { "school": "ALDER ELEMENTARY SCHOOL", "street_address": "17200 SE ALDER ST", "city": "PORTLAND", "state": "OR", "zip_code": "97233" }, "geometry": { "type": "Point", "coordinates": [ -122.486267738546616, 45.5161024 ] } },
{ "type": "Feature", "properties": { "school": "GLENFAIR ELEMENTARY SCHOOL", "street_address": "15300 NE GLISAN ST", "city": "PORTLAND", "state": "OR", "zip_code": "97230" }, "geometry": { "type": "Point", "coordinates": [ -122.505402873098362, 45.525383 ] } },
{ "type": "Feature", "properties": { "school": "HARTLEY ELEMENTARY SCHOOL", "street_address": "701 NE 185TH AVE", "city": "PORTLAND", "state": "OR", "zip_code": "97230" }, "geometry": { "type": "Point", "coordinates": [ -122.483685, 45.637601 ] } },
{ "type": "Feature", "properties": { "school": "MARGARET SCOTT ELEMENTARY SCHOOL", "street_address": "14700 NE SACRAMENTO ST", "city": "PORTLAND", "state": "OR", "zip_code": "97230" }, "geometry": { "type": "Point", "coordinates": [ -122.511937659611718, 45.5389476 ] } },
{ "type": "Feature", "properties": { "school": "DAVIS ELEMENTARY SCHOOL", "street_address": "19501 NE DAVIS ST", "city": "PORTLAND", "state": "OR", "zip_code": "97230" }, "geometry": { "type": "Point", "coordinates": [ -122.499477, 45.5242515 ] } },
{ "type": "Feature", "properties": { "school": "WILKES ELEMENTARY SCHOOL", "street_address": "17020 NE WILKES RD", "city": "PORTLAND", "state": "OR", "zip_code": "97230" }, "geometry": { "type": "Point", "coordinates": [ -122.488364097495577, 45.54115175 ] } },
{ "type": "Feature", "properties": { "school": "SAUVIE ISLAND ELEMENTARY SCHOOL", "street_address": "14445 NW CHARLTON RD", "city": "PORTLAND", "state": "OR", "zip_code": "97231" }, "geometry": { "type": "Point", "coordinates": [ -122.825683991944516, 45.65552995 ] } }
]
}
